OBJECT_NAME,OBJECT_ID,EPOCH,MEAN_MOTION,ECCENTRICITY,INCLINATION,RA_OF_ASC_NODE,ARG_OF_PERICENTER,MEAN_ANOMALY,EPHEMERIS_TYPE,CLASSIFICATION_TYPE,NORAD_CAT_ID,ELEMENT_SET_NO,REV_AT_EPOCH,BSTAR,MEAN_MOTION_DOT,MEAN_MOTION_DDOT
STARLINK-2170,2021-017AH,2026-07-14T15:37:16.016448,15.31712531,.00008478,53.1605,333.1762,81.1986,278.9111,0,U,47753,999,29734,.94761318E-4,.2578E-4,0
STARLINK-2178,2021-017AQ,2026-07-14T15:41:40.606944,15.31703576,.00012444,53.1621,345.9597,89.9379,270.1765,0,U,47760,999,29714,.5451956E-4,.1327E-4,0
STARLINK-2180,2021-017AS,2026-07-15T00:00:02.000160,15.80601683,.0003287,53.1534,315.6231,329.2145,283.8025,0,U,47762,999,600,-.13805E-3,-.27532E-3,0
STARLINK-2185,2021-017AX,2026-07-15T04:24:26.801856,15.74866352,.0002649,53.1526,314.2100,7.8407,352.2654,0,U,47767,999,29765,.52732E-3,.79656E-3,0
STARLINK-2193,2021-017BA,2026-07-14T14:57:00.254304,15.31709986,.00013075,53.1626,333.3157,74.9014,285.2132,0,U,47770,999,29731,-.11828516E-3,-.4035E-4,0
STARLINK-2194,2021-017BB,2026-07-14T16:37:40.646784,15.31704415,.00010898,53.1610,332.9229,87.7458,272.3668,0,U,47771,999,29733,.75883869E-4,.1991E-4,0
STARLINK-2195,2021-017BC,2026-07-14T17:22:28.517952,15.31685701,.00009287,53.1619,346.2322,98.7214,261.3892,0,U,47772,999,29712,.477865E-4,.1118E-4,0
STARLINK-2196,2021-017BD,2026-07-14T17:29:03.767712,15.31699872,.00012038,53.1630,345.6416,86.0775,274.0364,0,U,47773,999,29712,.74958695E-4,.1962E-4,0
STARLINK-2209,2021-017BG,2026-07-15T04:00:03.000096,15.83229514,.0003615,53.1511,308.0039,348.9378,101.1786,0,U,47776,999,594,.31245E-3,.68677E-3,0
STARLINK-2211,2021-017BJ,2026-07-14T14:39:22.484160,15.54493481,.0000621,53.1564,320.7842,23.1875,336.9164,0,U,47778,999,29748,.84264E-3,.56373E-3,0
STARLINK-2213,2021-017BL,2026-07-14T15:57:22.580352,15.31711170,.00009745,53.1620,333.0357,72.9341,287.1767,0,U,47780,999,29735,.22971605E-4,.348E-5,0
STARLINK-2257,2021-018A,2026-07-14T23:08:19.972320,15.31716627,.0000971,53.1614,13.5076,71.6675,288.4432,0,U,47787,999,29618,.69806E-4,.1803E-4,0
STARLINK-2314,2021-018B,2026-07-14T15:53:56.848992,15.42596947,.00011395,53.1551,344.4040,129.3069,230.8039,0,U,47788,999,29658,.7392052E-3,.32366E-3,0
STARLINK-2315,2021-018C,2026-07-14T16:30:10.544256,15.31707137,.00009486,53.1612,8.4068,79.7478,280.3631,0,U,47789,999,29622,.31754887E-4,.621E-5,0
STARLINK-2319,2021-018D,2026-07-14T17:02:11.897952,15.31721293,.0001394,53.1621,345.6828,42.9836,317.1274,0,U,47790,999,29656,.56841126E-4,.14E-4,0
STARLINK-2322,2021-018E,2026-07-14T19:26:20.541408,15.31702065,.00012764,53.1609,11.4517,80.0015,280.1130,0,U,47791,999,29621,.22949284E-4,.347E-5,0
STARLINK-2334,2021-018F,2026-07-14T17:50:40.655904,15.31706737,.00013583,53.1618,7.9802,61.3065,298.8073,0,U,47792,999,29623,.39146598E-4,.85E-5,0
STARLINK-2338,2021-018G,2026-07-14T16:36:50.844096,15.31709948,.00011468,53.1610,8.2162,80.2510,279.8621,0,U,47793,999,29621,.31806528E-4,.622E-5,0
STARLINK-2373,2021-018K,2026-07-14T18:48:06.503040,15.36853759,.00007338,53.1575,6.5718,180.0670,180.0334,0,U,47796,999,29625,.10029783E-2,.36449E-3,0
STARLINK-2377,2021-018L,2026-07-14T20:10:56.684640,15.31708631,.00012294,53.1610,23.7711,80.7712,279.3429,0,U,47797,999,29602,.7565094E-4,.1984E-4,0
STARLINK-2379,2021-018M,2026-07-14T17:03:41.878368,15.31722769,.00013041,53.1609,8.1329,78.9598,281.1550,0,U,47798,999,29622,.11823756E-3,.3308E-4,0
STARLINK-2380,2021-018N,2026-07-14T17:28:13.661760,15.31710653,.00011794,53.1603,1.0523,88.3726,271.7411,0,U,47799,999,29632,.69381396E-4,.1789E-4,0
STARLINK-2381,2021-018P,2026-07-14T17:17:06.571680,15.31704807,.00012625,53.1621,8.0024,88.6706,271.4441,0,U,47800,999,29622,.16796978E-4,.156E-5,0
STARLINK-2383,2021-018R,2026-07-15T00:32:46.729248,15.31711756,.0001162,53.1609,23.3946,98.3426,261.7707,0,U,47802,999,29605,.38637E-4,.834E-5,0
STARLINK-2385,2021-018T,2026-07-14T18:34:57.493920,15.31706504,.0001149,53.1611,358.8693,79.9080,280.2051,0,U,47804,999,29636,.45646344E-4,.1052E-4,0
STARLINK-2386,2021-018U,2026-07-14T18:33:15.042528,15.24918322,.00023673,53.0864,12.3925,191.5385,168.5559,0,U,47805,999,29616,.84323931E-3,.20987E-3,0
STARLINK-2387,2021-018V,2026-07-14T18:46:04.050048,15.31707747,.00008857,53.1587,11.6352,94.9309,265.1794,0,U,47806,999,29625,-.63167145E-4,-.2325E-4,0
STARLINK-2388,2021-018W,2026-07-14T17:08:54.846816,15.31715078,.00011869,53.1605,345.6703,92.7501,267.3637,0,U,47807,999,29654,.3240941E-5,-.265E-5,0
STARLINK-2389,2021-018X,2026-07-14T18:32:06.542880,15.31711330,.00009755,53.1618,11.3447,80.8053,279.3059,0,U,47808,999,29625,.38882804E-4,.842E-5,0
STARLINK-2391,2021-018Z,2026-07-14T22:25:13.687680,15.31713347,.0001316,53.1614,23.6572,89.2648,270.8504,0,U,47810,999,29609,.62027E-4,.1561E-4,0
STARLINK-2395,2021-018AD,2026-07-14T19:06:11.007072,15.31703307,.00012712,53.1604,11.4116,79.6080,280.5065,0,U,47814,999,29626,.32671281E-4,.649E-5,0
STARLINK-2396,2021-018AE,2026-07-14T17:25:28.774272,15.31695633,.00012622,53.1594,11.6082,103.4791,256.6351,0,U,47815,999,29618,-.2751101E-4,-.1219E-4,0
STARLINK-2399,2021-018AF,2026-07-14T22:19:29.047584,15.31716108,.0001092,53.1605,26.1537,88.7805,271.3322,0,U,47816,999,29598,.98981E-4,.2709E-4,0
STARLINK-2400,2021-018AG,2026-07-14T18:05:50.047008,15.31710077,.00011755,53.1617,11.9148,83.4414,276.6721,0,U,47817,999,29618,.48640539E-4,.1145E-4,0
STARLINK-2401,2021-018AH,2026-07-15T00:07:03.958752,15.80868302,.0003164,53.0443,357.2567,311.5885,48.4865,0,U,47818,999,29638,.53836E-3,.106893E-2,0
STARLINK-2402,2021-018AJ,2026-07-14T21:07:01.407360,15.31711577,.0001199,53.1612,11.2410,98.7646,261.3491,0,U,47819,999,29627,.11155E-3,.3099E-4,0
STARLINK-2406,2021-018AL,2026-07-14T16:38:30.903936,15.31732100,.00011287,53.1598,11.9833,100.8810,259.2319,0,U,47821,999,29618,-.15523513E-3,-.5184E-4,0
STARLINK-2407,2021-018AM,2026-07-14T22:38:34.907712,15.31710492,.0001305,53.1600,23.1942,98.8402,261.2748,0,U,47822,999,29605,.10326E-3,.2842E-4,0
STARLINK-2408,2021-018AN,2026-07-14T19:04:50.217024,15.31699587,.00014952,53.1621,26.6567,70.5346,289.5817,0,U,47823,999,29597,.30358295E-4,.577E-5,0
STARLINK-2409,2021-018AP,2026-07-14T20:18:18.700992,15.31700221,.00012584,53.1591,27.0829,88.3501,271.7645,0,U,47824,999,29596,-.26227476E-4,-.1179E-4,0
STARLINK-2410,2021-018AQ,2026-07-14T17:18:48.143520,15.31707569,.00009931,53.1616,11.7751,96.0553,264.0561,0,U,47825,999,29619,.20109811E-4,.259E-5,0
STARLINK-2411,2021-018AR,2026-07-14T18:33:06.839712,15.31711889,.00012659,53.1626,14.0875,91.1786,268.9360,0,U,47826,999,29616,.50709763E-4,.1209E-4,0
STARLINK-2413,2021-018AS,2026-07-14T19:12:22.187520,15.31706540,.00011404,53.1618,11.1655,117.9758,242.1359,0,U,47827,999,29625,.35461628E-4,.736E-5,0
STARLINK-2415,2021-018AT,2026-07-14T18:03:24.433632,15.31709983,.00017077,53.1602,24.0940,124.5360,235.5803,0,U,47828,999,29602,.60328808E-4,.1508E-4,0
STARLINK-2419,2021-018AV,2026-07-14T22:18:30.076992,15.31713194,.0001072,53.1609,23.5894,94.1868,265.9256,0,U,47830,999,29603,.52471E-4,.1264E-4,0
STARLINK-2420,2021-018AW,2026-07-14T23:00:34.578720,15.31710044,.0001172,53.1607,10.5274,81.2844,278.8290,0,U,47831,999,29626,.44933E-4,.103E-4,0
STARLINK-2422,2021-018AX,2026-07-14T21:27:40.379904,15.31707917,.0001133,53.1609,13.8418,101.5150,258.5979,0,U,47832,999,29617,.28439E-4,.518E-5,0
STARLINK-2423,2021-018AY,2026-07-14T22:24:52.111008,15.31716034,.000102,53.1614,24.2601,105.8863,254.2250,0,U,47833,999,29607,.56707E-4,.1396E-4,0
STARLINK-2424,2021-018AZ,2026-07-14T22:21:14.834016,15.31709464,.0001289,53.1597,13.0127,79.1604,280.9542,0,U,47834,999,29624,.76561E-4,.2012E-4,0
STARLINK-2426,2021-018BB,2026-07-14T19:20:01.510656,15.31711234,.00011855,53.1607,13.5493,77.1770,282.9364,0,U,47836,999,29617,.65465247E-4,.1668E-4,0
STARLINK-2427,2021-018BC,2026-07-14T18:51:32.686272,15.31704739,.00009812,53.1616,7.6633,98.4680,261.6433,0,U,47837,999,29624,.22067452E-4,.32E-5,0
STARLINK-2429,2021-018BD,2026-07-14T18:39:53.743104,15.31711211,.00009717,53.1611,14.4242,94.2505,265.8608,0,U,47838,999,29615,.61628318E-4,.1548E-4,0
STARLINK-2431,2021-018BE,2026-07-14T16:01:51.382848,15.31707907,.00011507,53.1600,346.1512,68.1630,291.9494,0,U,47839,999,29655,.97122472E-4,.2651E-4,0
STARLINK-2432,2021-018BF,2026-07-14T18:57:48.696480,15.31705961,.00011292,53.1608,7.8372,83.6846,276.4284,0,U,47840,999,29623,.19692582E-3,.5752E-4,0
STARLINK-2433,2021-018BG,2026-07-14T20:04:53.567040,15.31710910,.0001048,53.1618,7.4649,110.7510,249.3603,0,U,47841,999,29624,.41177E-4,.913E-5,0
STARLINK-2435,2021-018BJ,2026-07-14T20:04:13.808352,15.31703098,.00015022,53.1616,23.7033,65.0556,295.0602,0,U,47843,999,29604,.62766027E-4,.1583E-4,0
STARLINK-2446,2021-018BK,2026-07-14T21:23:12.965856,15.34403508,.0001982,53.1603,13.7434,264.8203,95.2573,0,U,47844,999,29617,.85845E-3,.28743E-3,0
STARLINK-2453,2021-018BL,2026-07-14T18:24:11.517408,15.31709851,.00013464,53.1613,27.3566,84.3980,275.7175,0,U,47845,999,29596,.62081124E-4,.1562E-4,0
SHIYAN-9 (SY-9),2021-019A,2026-07-14T15:03:38.647296,1.00264409,.00135973,16.4684,302.0866,24.1897,338.6915,0,U,47851,999,2441,0,-.24E-5,0
YAOGAN-31 04A,2021-020A,2026-07-15T04:19:00.652224,13.45449268,.0177496,63.4026,186.0572,0.4956,359.6214,0,U,47854,999,26223,-.17766E-4,-.102E-5,0
YAOGAN-31 04B,2021-020C,2026-07-15T04:19:17.203008,13.45449334,.0177227,63.4022,186.8459,0.5850,359.5352,0,U,47856,999,26217,-.19668E-4,-.103E-5,0
YAOGAN-31 04C,2021-020D,2026-07-15T04:19:20.957952,13.45449927,.0177302,63.4033,186.1405,0.4226,359.6919,0,U,47857,999,26222,-.42443E-4,-.118E-5,0
STARLINK-2280,2021-021B,2026-07-14T22:52:35.128704,15.31713538,.0001239,53.1596,26.1782,95.0743,265.0400,0,U,47861,999,29589,.92885E-4,.2519E-4,0
STARLINK-2291,2021-021C,2026-07-15T01:07:51.371040,15.79517797,.0000829,53.1562,7.3940,347.6251,12.4751,0,U,47862,999,29615,.58813E-3,.109811E-2,0
STARLINK-2326,2021-021L,2026-07-14T21:20:10.027680,15.31705369,.0001326,53.1594,49.1410,92.3687,267.7466,0,U,47870,999,29545,.45704E-4,.1054E-4,0
